GLOBALSTAR M063         
1 26081U 00008A   24239.58514979 -.00000123  00000+0 -59404-3 0  9995
2 26081  51.9942 167.4405 0004647 101.9679  69.8179 11.86159439122619
GLOBALSTAR M062         
1 26082U 00008B   24239.26839701 -.00000044  00000+0  38557-3 0  9991
2 26082  51.9820 243.0369 0006998 202.4348 170.5241 12.43443898459933
GLOBALSTAR M060         
1 26083U 00008C   24239.55949815 -.00000159  00000+0 -67920-3 0  9996
2 26083  52.0008 160.5054 0002902 252.6224 278.4892 12.17637569116479
GLOBALSTAR M064         
1 26084U 00008D   24239.37335396 -.00000039  00000+0  63369-3 0  9999
2 26084  52.0010 270.3062 0001547 203.9015 156.1745 11.88521839132042
GLOBALSTAR M065         
1 31571U 07020A   24239.22494449 -.00000166  00000+0 -34871-3 0  9994
2 31571  51.9907  44.0163 0010303  18.0630 152.8405 12.61974143796165
GLOBALSTAR M069         
1 31573U 07020C   24239.64370956 -.00000064  00000+0  21938-3 0  9994
2 31573  51.9980 358.4828 0000794 126.9939 246.4628 12.62246836797353
GLOBALSTAR M072         
1 31574U 07020D   24239.35739622 -.00000077  00000+0  14996-3 0  9992
2 31574  52.0076  95.3557 0001181  64.3877 106.2857 12.62262476795583
GLOBALSTAR M071         
1 31576U 07020F   24239.59068564 -.00000060  00000+0  24191-3 0  9990
2 31576  52.0096   3.8632 0001168 146.5088 226.6827 12.62273304458534
